[{"OBJECT_NAME":"STARLINK-31297","OBJECT_ID":"2024-044G","EPOCH":"2026-03-09T19:38:03.242112","MEAN_MOTION":15.27538531,"ECCENTRICITY":8.421e-5,"INCLINATION":42.9996,"RA_OF_ASC_NODE":106.4352,"ARG_OF_PERICENTER":114.0139,"MEAN_ANOMALY":246.0801,"EPHEMERIS_TYPE":0,"CLASSIFICATION_TYPE":"U","NORAD_CAT_ID":59158,"ELEMENT_SET_NO":999,"REV_AT_EPOCH":11361,"BSTAR":-3.6130173e-5,"MEAN_MOTION_DOT":-1.255e-5,"MEAN_MOTION_DDOT":0},{"OBJECT_NAME":"OBJECT P","OBJECT_ID":"2018-099P","EPOCH":"2026-03-09T16:35:55.790016","MEAN_MOTION":15.30834106,"ECCENTRICITY":0.00076856,"INCLINATION":97.4366,"RA_OF_ASC_NODE":131.9195,"ARG_OF_PERICENTER":276.7627,"MEAN_ANOMALY":83.2739,"EPHEMERIS_TYPE":0,"CLASSIFICATION_TYPE":"U","NORAD_CAT_ID":43771,"ELEMENT_SET_NO":999,"REV_AT_EPOCH":39830,"BSTAR":0.00063632878,"MEAN_MOTION_DOT":0.00018926,"MEAN_MOTION_DDOT":0}]
